{"type": "FeatureCollection", "features": [{"type": "Feature", "properties": {"GID_2": "CHN.31.1_1", "GID_0": "CHN", "COUNTRY": "China", "GID_1": "CHN.31_1", "NAME_1": "Zhejiang", "NL_NAME_1": "浙江", "NAME_2": "Hangzhou", "VARNAME_2": "Hángzhōu", "NL_NAME_2": "杭州市", "TYPE_2": "Dìjíshì", "ENGTYPE_2": "PrefectureCity", "CC_2": "NA", "HASC_2": "NA"}, "geometry": {"type": "MultiPolygon", "coordinates": [[[[119.7638, 29.588], [119.764, 29.5724], [119.7633, 29.5676], [119.7602, 29.5638], [119.7521, 29.5576], [119.7249, 29.5491], [119.7227, 29.5457], [119.7219, 29.5405], [119.7238, 29.5354], [119.7274, 29.5329], [119.7412, 29.5291], [119.7441, 29.5237], [119.7432, 29.5201], [119.7404, 29.5179], [119.7178, 29.5105], [119.7129, 29.5049], [119.7104, 29.4961], [119.7111, 29.4889], [119.7047, 29.4793], [119.7012, 29.4704], [119.702, 29.4578], [119.6941, 29.4509], [119.6877, 29.4477], [119.6616, 29.44], [119.6452, 29.4377], [119.6338, 29.4342], [119.6287, 29.4311], [119.6164, 29.418], [119.6028, 29.4078], [119.5748, 29.3768], [119.5653, 29.3741], [119.5525, 29.3754], [119.5288, 29.3726], [119.5234, 29.3698], [119.5206, 29.3662], [119.5174, 29.3509], [119.4935, 29.337], [119.4793, 29.3344], [119.4672, 29.3474], [119.4582, 29.3538], [119.4535, 29.3613], [119.4476, 29.3787], [119.4457, 29.3911], [119.4398, 29.4078], [119.4356, 29.4146], [119.4296, 29.4164], [119.4249, 29.4147], [119.4104, 29.4009], [119.4028, 29.4015], [119.3985, 29.4049], [119.3912, 29.414], [119.3861, 29.424], [119.383, 29.4259], [119.3772, 29.4453], [119.3694, 29.4437], [119.3614, 29.4312], [119.3568, 29.4191], [119.3352, 29.4108], [119.3314, 29.4084], [119.3269, 29.4002], [119.3276, 29.3903], [119.3314, 29.3801], [119.328, 29.3571], [119.3303, 29.3485], [119.3405, 29.3356], [119.3414, 29.331], [119.3402, 29.3267], [119.317, 29.2886], [119.3106, 29.2846], [119.2916, 29.2819], [119.2776, 29.2697], [119.2754, 29.262], [119.2716, 29.2559], [119.2675, 29.2523], [119.2617, 29.2506], [119.2458, 29.2552], [119.2393, 29.2614], [119.2266, 29.2801], [119.2188, 29.2826], [119.2098, 29.2821], [119.1969, 29.2712], [119.1932, 29.2638], [119.207, 29.2455], [119.2103, 29.2358], [119.2096, 29.2323], [119.1982, 29.2212], [119.1825, 29.2138], [119.1726, 29.215], [119.1547, 29.2272], [119.1476, 29.2276], [119.1323, 29.2236], [119.1287, 29.2247], [119.1213, 29.231], [119.1161, 29.2328], [119.064, 29.227], [119.0073, 29.2138], [118.9934, 29.2151], [118.9883, 29.2177], [118.9841, 29.2259], [118.9824, 29.2367], [118.9828, 29.2578], [118.9801, 29.2629], [118.975, 29.2679], [118.9665, 29.2724], [118.9532, 29.2753], [118.949, 29.2814], [118.9505, 29.288], [118.9544, 29.2945], [118.9537, 29.2973], [118.9397, 29.3084], [118.9324, 29.3107], [118.9074, 29.3237], [118.8979, 29.3303], [118.8702, 29.3255], [118.8641, 29.3238], [118.8569, 29.3192], [118.8383, 29.2972], [118.7924, 29.2717], [118.779, 29.2617], [118.7644, 29.2533], [118.7614, 29.2502], [118.7596, 29.244], [118.7602, 29.2307], [118.7553, 29.2242], [118.731, 29.2158], [118.7116, 29.1988], [118.6997, 29.197], [118.6829, 29.2029], [118.6751, 29.2033], [118.6506, 29.1988], [118.6235, 29.1965], [118.62, 29.2023], [118.6213, 29.2117], [118.6204, 29.2156], [118.6177, 29.2207], [118.6061, 29.2292], [118.601, 29.2497], [118.6009, 29.2637], [118.6024, 29.272], [118.6148, 29.2811], [118.6175, 29.2863], [118.6171, 29.2897], [118.6038, 29.3075], [118.5947, 29.329], [118.5788, 29.3314], [118.5736, 29.3334], [118.5651, 29.3398], [118.5401, 29.346], [118.5258, 29.3601], [118.5227, 29.3611], [118.5177, 29.3617], [118.4914, 29.3583], [118.481, 29.3691], [118.4713, 29.3689], [118.4559, 29.3646], [118.452, 29.3665], [118.4411, 29.3778], [118.4201, 29.3888], [118.412, 29.3972], [118.4077, 29.4028], [118.4037, 29.4123], [118.4052, 29.4184], [118.4032, 29.4224], [118.397, 29.4255], [118.381, 29.427], [118.3777, 29.4286], [118.371, 29.4347], [118.3645, 29.445], [118.3397, 29.4624], [118.3334, 29.472], [118.3333, 29.4754], [118.3374, 29.4824], [118.3468, 29.4802], [118.3568, 29.4816], [118.3628, 29.4832], [118.3678, 29.488], [118.3728, 29.4899], [118.3844, 29.4894], [118.3973, 29.4801], [118.4012, 29.4812], [118.3993, 29.4929], [118.3998, 29.5023], [118.4022, 29.5055], [118.4158, 29.5108], [118.436, 29.5118], [118.4511, 29.5043], [118.472, 29.5069], [118.4817, 29.5111], [118.4874, 29.5182], [118.4938, 29.5459], [118.4942, 29.5614], [118.5034, 29.5734], [118.5117, 29.5806], [118.5297, 29.5917], [118.5362, 29.599], [118.5388, 29.6057], [118.5469, 29.6148], [118.5561, 29.6138], [118.565, 29.6189], [118.5676, 29.6282], [118.5723, 29.636], [118.5855, 29.6448], [118.6063, 29.6492], [118.6122, 29.6487], [118.6219, 29.6448], [118.6315, 29.6448], [118.6469, 29.6513], [118.6529, 29.6598], [118.6732, 29.679], [118.6911, 29.6999], [118.7097, 29.7086], [118.7224, 29.7166], [118.7392, 29.7398], [118.7421, 29.7506], [118.7432, 29.7625], [118.7377, 29.7799], [118.7337, 29.7859], [118.7305, 29.8044], [118.7313, 29.8106], [118.7357, 29.8177], [118.7408, 29.8198], [118.7535, 29.8212], [118.7545, 29.823], [118.7527, 29.8292], [118.7495, 29.8329], [118.7485, 29.8393], [118.7524, 29.8459], [118.7601, 29.8505], [118.7714, 29.8439], [118.7796, 29.8482], [118.7896, 29.8601], [118.8054, 29.8702], [118.831, 29.8918], [118.8387, 29.9016], [118.8411, 29.9099], [118.8342, 29.9307], [118.8338, 29.9375], [118.8375, 29.9394], [118.8489, 29.9383], [118.8699, 29.9432], [118.872, 29.945], [118.8833, 29.9463], [118.8915, 29.9513], [118.8926, 29.9552], [118.8907, 29.9657], [118.8916, 29.9843], [118.8884, 30.0094], [118.8982, 30.0269], [118.8895, 30.0496], [118.8866, 30.0661], [118.8828, 30.075], [118.8706, 30.0909], [118.8656, 30.1084], [118.873, 30.1189], [118.8844, 30.1287], [118.8942, 30.14], [118.8921, 30.1558], [118.8873, 30.1638], [118.8778, 30.1627], [118.8646, 30.1553], [118.8577, 30.154], [118.8487, 30.1586], [118.8469, 30.1627], [118.8495, 30.1689], [118.8572, 30.1719], [118.8686, 30.1716], [118.8996, 30.1913], [118.9109, 30.2016], [118.921, 30.2146], [118.9186, 30.2172], [118.9099, 30.2183], [118.9009, 30.222], [118.8898, 30.2346], [118.887, 30.2493], [118.8875, 30.2628], [118.8862, 30.2672], [118.878, 30.2752], [118.8751, 30.286], [118.8794, 30.3066], [118.8791, 30.3169], [118.8799, 30.3201], [118.8948, 30.3307], [118.916, 30.338], [118.9295, 30.3515], [118.9441, 30.3632], [118.9528, 30.3641], [118.9777, 30.3539], [119.0028, 30.3312], [119.0422, 30.3105], [119.0531, 30.3084], [119.0852, 30.3296], [119.0953, 30.3268], [119.0984, 30.3234], [119.1204, 30.3119], [119.1458, 30.3113], [119.1516, 30.3102], [119.159, 30.304], [119.1844, 30.3009], [119.2093, 30.2953], [119.2252, 30.2955], [119.23, 30.303], [119.2364, 30.3218], [119.2458, 30.3433], [119.2485, 30.3463], [119.2524, 30.347], [119.2675, 30.3444], [119.2832, 30.3489], [119.2954, 30.356], [119.3106, 30.3701], [119.3228, 30.3762], [119.3342, 30.3732], [119.3479, 30.3573], [119.3585, 30.355], [119.3638, 30.3559], [119.3967, 30.3713], [119.3999, 30.3754], [119.4019, 30.3845], [119.4106, 30.3816], [119.4311, 30.3894], [119.4402, 30.3979], [119.446, 30.4124], [119.4521, 30.4184], [119.4621, 30.4172], [119.4689, 30.4142], [119.4949, 30.413], [119.514, 30.4072], [119.5239, 30.4097], [119.5355, 30.4208], [119.5404, 30.4326], [119.5446, 30.4384], [119.5546, 30.4473], [119.5593, 30.4476], [119.5679, 30.4439], [119.5748, 30.4369], [119.5829, 30.4323], [119.6004, 30.4278], [119.6195, 30.4321], [119.6301, 30.4405], [119.6369, 30.4497], [119.6401, 30.4519], [119.6457, 30.4513], [119.648, 30.4493], [119.6472, 30.4425], [119.6309, 30.4258], [119.6271, 30.4183], [119.6307, 30.409], [119.6405, 30.4014], [119.654, 30.4005], [119.6649, 30.4018], [119.6765, 30.4077], [119.6809, 30.4107], [119.6919, 30.4262], [119.7, 30.4439], [119.7007, 30.4783], [119.7046, 30.5174], [119.7046, 30.5417], [119.7077, 30.5537], [119.7115, 30.5557], [119.7208, 30.5554], [119.7323, 30.55], [119.7499, 30.546], [119.7698, 30.5447], [119.7819, 30.5423], [119.7858, 30.5403], [119.7939, 30.5187], [119.7997, 30.5105], [119.8033, 30.509], [119.818, 30.5104], [119.8364, 30.4995], [119.8472, 30.4992], [119.854, 30.4955], [119.8723, 30.478], [119.8741, 30.463], [119.8792, 30.4598], [119.9253, 30.4584], [119.9367, 30.4511], [119.9539, 30.4368], [119.9623, 30.4347], [119.9682, 30.4361], [119.9824, 30.4455], [119.9942, 30.443], [120.0, 30.4387], [120.0146, 30.4399], [120.055, 30.4371], [120.0664, 30.4381], [120.0685, 30.4456], [120.0672, 30.4503], [120.0649, 30.4535], [120.0573, 30.4516], [120.05, 30.4599], [120.0493, 30.4654], [120.0498, 30.4776], [120.0529, 30.4914], [120.0595, 30.4976], [120.0629, 30.4994], [120.0917, 30.4962], [120.1185, 30.4888], [120.1369, 30.4816], [120.1526, 30.4809], [120.1693, 30.4863], [120.1757, 30.4932], [120.1878, 30.5133], [120.1924, 30.5304], [120.1987, 30.5325], [120.2033, 30.517], [120.2107, 30.5117], [120.2312, 30.5103], [120.2731, 30.5116], [120.2861, 30.5173], [120.3017, 30.5202], [120.3129, 30.5182], [120.3182, 30.5132], [120.3196, 30.503], [120.3189, 30.486], [120.3214, 30.4848], [120.3188, 30.4794], [120.32, 30.4753], [120.329, 30.47], [120.3311, 30.4657], [120.3326, 30.4607], [120.3322, 30.4453], [120.3261, 30.4261], [120.3133, 30.4087], [120.3024, 30.4021], [120.3013, 30.3984], [120.3108, 30.3856], [120.3229, 30.3768], [120.3277, 30.3751], [120.3371, 30.3731], [120.3748, 30.3715], [120.4272, 30.381], [120.4553, 30.3892], [120.482, 30.3893], [120.5526, 30.3957], [120.6125, 30.3964], [120.634, 30.3934], [120.6415, 30.3907], [120.6365, 30.3729], [120.6499, 30.3682], [120.654, 30.3646], [120.6563, 30.3646], [120.659, 30.361], [120.6596, 30.3576], [120.6551, 30.3363], [120.6565, 30.3343], [120.6601, 30.3335], [120.6657, 30.3224], [120.6882, 30.2643], [120.6974, 30.2551], [120.7043, 30.2535], [120.7076, 30.2554], [120.7065, 30.251], [120.7076, 30.246], [120.729, 30.2262], [120.7471, 30.2229], [120.751, 30.2257], [120.7538, 30.2257], [120.7918, 30.2224], [120.7974, 30.2226], [120.8093, 30.2271], [120.8146, 30.2204], [120.8176, 30.209], [120.826, 30.2018], [120.8371, 30.1671], [120.8446, 30.1615], [120.8535, 30.1571], [120.8665, 30.1574], [120.8774, 30.1635], [120.8949, 30.166], [120.8319, 30.1415], [120.8254, 30.1298], [120.8127, 30.1249], [120.7926, 30.125], [120.7371, 30.1343], [120.692, 30.1464], [120.6754, 30.1447], [120.6539, 30.138], [120.6448, 30.129], [120.6423, 30.1319], [120.6307, 30.1307], [120.62, 30.1351], [120.607, 30.1475], [120.5979, 30.1505], [120.57, 30.1548], [120.5074, 30.161], [120.4708, 30.1717], [120.4622, 30.1674], [120.447, 30.1543], [120.4293, 30.1458], [120.4237, 30.146], [120.417, 30.1499], [120.4123, 30.1384], [120.4097, 30.1358], [120.4042, 30.1341], [120.3974, 30.1332], [120.3931, 30.1345], [120.386, 30.1428], [120.3771, 30.1495], [120.3717, 30.1508], [120.3683, 30.1507], [120.3505, 30.143], [120.2964, 30.1402], [120.2897, 30.1324], [120.2861, 30.1209], [120.2829, 30.1158], [120.2839, 30.1064], [120.2878, 30.1007], [120.2936, 30.1006], [120.2975, 30.1051], [120.3065, 30.1108], [120.3161, 30.1082], [120.3245, 30.1027], [120.3277, 30.0947], [120.3288, 30.0762], [120.3319, 30.0666], [120.3253, 30.058], [120.3189, 30.0528], [120.3345, 30.0334], [120.3401, 30.0241], [120.3482, 30.0195], [120.3537, 30.0118], [120.357, 29.9891], [120.3552, 29.9832], [120.3477, 29.9791], [120.3425, 29.9783], [120.3232, 29.9508], [120.3053, 29.9403], [120.2914, 29.9395], [120.2868, 29.941], [120.2598, 29.9346], [120.2421, 29.9457], [120.2328, 29.9462], [120.2062, 29.9378], [120.196, 29.9322], [120.1859, 29.9189], [120.1792, 29.9133], [120.1519, 29.9083], [120.1465, 29.9042], [120.143, 29.8982], [120.1419, 29.8915], [120.1297, 29.8692], [120.1179, 29.859], [120.1031, 29.8504], [120.0996, 29.8446], [120.1016, 29.8444], [120.1017, 29.84], [120.0984, 29.8271], [120.0938, 29.8224], [120.0714, 29.8306], [120.0638, 29.8308], [120.0586, 29.8289], [120.0456, 29.8295], [120.0303, 29.8371], [120.0286, 29.8348], [120.028, 29.8281], [120.0284, 29.793], [120.025, 29.775], [120.0195, 29.7673], [120.0, 29.7547], [119.9929, 29.7566], [119.9806, 29.7637], [119.9704, 29.7659], [119.9656, 29.7651], [119.9519, 29.7582], [119.9404, 29.7609], [119.935, 29.7567], [119.9288, 29.7477], [119.9238, 29.7474], [119.9099, 29.755], [119.899, 29.7663], [119.8927, 29.7675], [119.8908, 29.7659], [119.8904, 29.7552], [119.8936, 29.7445], [119.8938, 29.7362], [119.9037, 29.7283], [119.908, 29.7112], [119.9154, 29.705], [119.921, 29.7025], [119.9255, 29.7022], [119.9421, 29.7076], [119.9514, 29.7045], [119.9718, 29.6883], [119.9733, 29.6813], [119.9717, 29.6759], [119.9671, 29.6774], [119.9539, 29.6772], [119.9286, 29.6697], [119.9144, 29.6699], [119.9063, 29.6732], [119.9019, 29.6733], [119.8949, 29.6708], [119.8908, 29.6668], [119.8847, 29.6654], [119.8745, 29.6669], [119.8634, 29.6727], [119.8469, 29.6744], [119.8328, 29.6822], [119.822, 29.6777], [119.796, 29.6648], [119.7839, 29.6537], [119.7756, 29.6423], [119.7713, 29.6337], [119.7734, 29.6081], [119.7697, 29.6032], [119.7635, 29.5986], [119.7638, 29.588]]], [[[120.9043, 30.2337], [120.9271, 30.2196], [120.9271, 30.2124], [120.9163, 30.2001], [120.9132, 30.2024], [120.9057, 30.1974], [120.8907, 30.1949], [120.8712, 30.1888], [120.8643, 30.1888], [120.8565, 30.1926], [120.8529, 30.1951], [120.851, 30.199], [120.8468, 30.1996], [120.8421, 30.1974], [120.8412, 30.214], [120.8454, 30.2124], [120.8474, 30.2138], [120.8429, 30.2249], [120.8465, 30.2301], [120.8529, 30.2299], [120.8557, 30.2251], [120.8771, 30.2243], [120.8824, 30.2282], [120.899, 30.2312], [120.9004, 30.2343], [120.9043, 30.2337]]]]}}]}